{
  "type": "FeatureCollection",
  "features": [
    {
      "type": "Feature",
      "properties": {
        "norad_id": 34492,
        "name": "IRIDIUM 33 DEB",
        "group": "iridium-33-debris",
        "lat": 3.6295600256226463,
        "lon": 157.9601418656616,
        "alt_km": 808.608951458772,
        "timestamp": "2025-12-03T22:42:33.017869+00:00",
        "meta_object_name": "IRIDIUM 33 DEB",
        "meta_object_id": "1997-051GH",
        "meta_epoch": "2025-12-03T10:48:32.343840",
        "meta_mean_motion": 14.25280236,
        "meta_eccentricity": 0.0190283,
        "meta_inclination": 86.4711,
        "meta_ra_of_asc_node": 338.3846,
        "meta_arg_of_pericenter": 268.3385,
        "meta_mean_anomaly": 247.4972,
        "meta_ephemeris_type": 0,
        "meta_classification_type": "U",
        "meta_norad_cat_id": 34492,
        "meta_element_set_no": 999,
        "meta_rev_at_epoch": 84926,
        "meta_bstar": 0.0085812,
        "meta_mean_motion_dot": 0.00024475,
        "meta_mean_motion_ddot": 0,
        "tle_line1": "1 34492U 97051GH  25337.45037435  .00024475  00000+0  85812-2 0  9992",
        "tle_line2": "2 34492  86.4711 338.3846 0190283 268.3385 247.4972 14.25280236849261"
      },
      "geometry": {
        "type": "Point",
        "coordinates": [
          157.9601418656616,
          3.6295600256226463
        ]
      }
    },
    {
      "type": "Feature",
      "properties": {
        "norad_id": 34497,
        "name": "IRIDIUM 33 DEB",
        "group": "iridium-33-debris",
        "lat": -3.365490678855386,
        "lon": 55.938256498621925,
        "alt_km": 747.6456150505437,
        "timestamp": "2025-12-03T22:42:33.017879+00:00",
        "meta_object_name": "IRIDIUM 33 DEB",
        "meta_object_id": "1997-051GN",
        "meta_epoch": "2025-12-03T06:10:51.201984",
        "meta_mean_motion": 14.27408211,
        "meta_eccentricity": 0.0079856,
        "meta_inclination": 86.2784,
        "meta_ra_of_asc_node": 56.4516,
        "meta_arg_of_pericenter": 10.3771,
        "meta_mean_anomaly": 49.8757,
        "meta_ephemeris_type": 0,
        "meta_classification_type": "U",
        "meta_norad_cat_id": 34497,
        "meta_element_set_no": 999,
        "meta_rev_at_epoch": 86748,
        "meta_bstar": 0.00083815,
        "meta_mean_motion_dot": 2.144e-05,
        "meta_mean_motion_ddot": 0,
        "tle_line1": "1 34497U 97051GN  25337.25753706  .00002144  00000+0  83815-3 0  9992",
        "tle_line2": "2 34497  86.2784  56.4516 0079856  10.3771  49.8757 14.27408211867488"
      },
      "geometry": {
        "type": "Point",
        "coordinates": [
          55.938256498621925,
          -3.365490678855386
        ]
      }
    },
    {
      "type": "Feature",
      "properties": {
        "norad_id": 34508,
        "name": "IRIDIUM 33 DEB",
        "group": "iridium-33-debris",
        "lat": 10.788997387259354,
        "lon": -74.32335155843174,
        "alt_km": 726.1606191747969,
        "timestamp": "2025-12-03T22:42:33.017888+00:00",
        "meta_object_name": "IRIDIUM 33 DEB",
        "meta_object_id": "1997-051GZ",
        "meta_epoch": "2025-12-03T08:33:52.368768",
        "meta_mean_motion": 14.38274936,
        "meta_eccentricity": 0.0065473,
        "meta_inclination": 86.3696,
        "meta_ra_of_asc_node": 106.6197,
        "meta_arg_of_pericenter": 203.4405,
        "meta_mean_anomaly": 156.3806,
        "meta_ephemeris_type": 0,
        "meta_classification_type": "U",
        "meta_norad_cat_id": 34508,
        "meta_element_set_no": 999,
        "meta_rev_at_epoch": 87174,
        "meta_bstar": 0.0024457,
        "meta_mean_motion_dot": 7.645e-05,
        "meta_mean_motion_ddot": 0,
        "tle_line1": "1 34508U 97051GZ  25337.35685612  .00007645  00000+0  24457-2 0  9993",
        "tle_line2": "2 34508  86.3696 106.6197 0065473 203.4405 156.3806 14.38274936871746"
      },
      "geometry": {
        "type": "Point",
        "coordinates": [
          -74.32335155843174,
          10.788997387259354
        ]
      }
    },
    {
      "type": "Feature",
      "properties": {
        "norad_id": 34521,
        "name": "IRIDIUM 33 DEB",
        "group": "iridium-33-debris",
        "lat": -80.4844728730979,
        "lon": 12.238207715966489,
        "alt_km": 689.399638768894,
        "timestamp": "2025-12-03T22:42:33.017898+00:00",
        "meta_object_name": "IRIDIUM 33 DEB",
        "meta_object_id": "1997-051HN",
        "meta_epoch": "2025-12-03T11:35:26.969856",
        "meta_mean_motion": 14.63226044,
        "meta_eccentricity": 0.0001159,
        "meta_inclination": 86.3814,
        "meta_ra_of_asc_node": 34.6229,
        "meta_arg_of_pericenter": 292.6946,
        "meta_mean_anomaly": 67.4143,
        "meta_ephemeris_type": 0,
        "meta_classification_type": "U",
        "meta_norad_cat_id": 34521,
        "meta_element_set_no": 999,
        "meta_rev_at_epoch": 88337,
        "meta_bstar": 0.0013818,
        "meta_mean_motion_dot": 7.138e-05,
        "meta_mean_motion_ddot": 0,
        "tle_line1": "1 34521U 97051HN  25337.48295104  .00007138  00000+0  13818-2 0  9991",
        "tle_line2": "2 34521  86.3814  34.6229 0001159 292.6946  67.4143 14.63226044883373"
      },
      "geometry": {
        "type": "Point",
        "coordinates": [
          12.238207715966489,
          -80.4844728730979
        ]
      }
    },
    {
      "type": "Feature",
      "properties": {
        "norad_id": 34525,
        "name": "IRIDIUM 33 DEB",
        "group": "iridium-33-debris",
        "lat": 23.01301346361584,
        "lon": 52.14013011331516,
        "alt_km": 748.8270201155965,
        "timestamp": "2025-12-03T22:42:33.017907+00:00",
        "meta_object_name": "IRIDIUM 33 DEB",
        "meta_object_id": "1997-051HS",
        "meta_epoch": "2025-12-03T11:01:10.915104",
        "meta_mean_motion": 14.42867248,
        "meta_eccentricity": 0.0006435,
        "meta_inclination": 86.3737,
        "meta_ra_of_asc_node": 50.8044,
        "meta_arg_of_pericenter": 116.3826,
        "meta_mean_anomaly": 258.5151,
        "meta_ephemeris_type": 0,
        "meta_classification_type": "U",
        "meta_norad_cat_id": 34525,
        "meta_element_set_no": 999,
        "meta_rev_at_epoch": 87954,
        "meta_bstar": 0.0005736,
        "meta_mean_motion_dot": 1.934e-05,
        "meta_mean_motion_ddot": 0,
        "tle_line1": "1 34525U 97051HS  25337.45915411  .00001934  00000+0  57360-3 0  9991",
        "tle_line2": "2 34525  86.3737  50.8044 0006435 116.3826 258.5151 14.42867248879547"
      },
      "geometry": {
        "type": "Point",
        "coordinates": [
          52.14013011331516,
          23.01301346361584
        ]
      }
    },
    {
      "type": "Feature",
      "properties": {
        "norad_id": 34529,
        "name": "IRIDIUM 33 DEB",
        "group": "iridium-33-debris",
        "lat": -10.017246030952636,
        "lon": 38.51662004909974,
        "alt_km": 762.8013617042543,
        "timestamp": "2025-12-03T22:42:33.017916+00:00",
        "meta_object_name": "IRIDIUM 33 DEB",
        "meta_object_id": "1997-051HW",
        "meta_epoch": "2025-12-03T04:25:06.115584",
        "meta_mean_motion": 14.40603135,
        "meta_eccentricity": 0.00036637,
        "meta_inclination": 86.3649,
        "meta_ra_of_asc_node": 39.4847,
        "meta_arg_of_pericenter": 211.6368,
        "meta_mean_anomaly": 148.4612,
        "meta_ephemeris_type": 0,
        "meta_classification_type": "U",
        "meta_norad_cat_id": 34529,
        "meta_element_set_no": 999,
        "meta_rev_at_epoch": 88004,
        "meta_bstar": 0.00016704296,
        "meta_mean_motion_dot": 5.52e-06,
        "meta_mean_motion_ddot": 0,
        "tle_line1": "1 34529U 97051HW  25337.18409856  .00000552  00000+0  16704-3 0  9998",
        "tle_line2": "2 34529  86.3649  39.4847 0003663 211.6368 148.4612 14.40603135880044"
      },
      "geometry": {
        "type": "Point",
        "coordinates": [
          38.51662004909974,
          -10.017246030952636
        ]
      }
    },
    {
      "type": "Feature",
      "properties": {
        "norad_id": 34538,
        "name": "IRIDIUM 33 DEB",
        "group": "iridium-33-debris",
        "lat": 55.4758080475496,
        "lon": -176.02162691749817,
        "alt_km": 759.2683988173321,
        "timestamp": "2025-12-03T22:42:33.017926+00:00",
        "meta_object_name": "IRIDIUM 33 DEB",
        "meta_object_id": "1997-051JF",
        "meta_epoch": "2025-12-03T09:06:24.180192",
        "meta_mean_motion": 14.42557361,
        "meta_eccentricity": 0.0033974,
        "meta_inclination": 86.2784,
        "meta_ra_of_asc_node": 9.6557,
        "meta_arg_of_pericenter": 359.4688,
        "meta_mean_anomaly": 63.0233,
        "meta_ephemeris_type": 0,
        "meta_classification_type": "U",
        "meta_norad_cat_id": 34538,
        "meta_element_set_no": 999,
        "meta_rev_at_epoch": 87621,
        "meta_bstar": 0.0012709,
        "meta_mean_motion_dot": 4.264e-05,
        "meta_mean_motion_ddot": 0,
        "tle_line1": "1 34538U 97051JF  25337.37944653  .00004264  00000+0  12709-2 0  9992",
        "tle_line2": "2 34538  86.2784   9.6557 0033974 359.4688  63.0233 14.42557361876210"
      },
      "geometry": {
        "type": "Point",
        "coordinates": [
          -176.02162691749817,
          55.4758080475496
        ]
      }
    }
  ]
}